[{"OBJECT_NAME":"JILIN-1 GAOFEN 3D31","OBJECT_ID":"2022-048F","EPOCH":"2026-03-09T22:43:25.074336","MEAN_MOTION":15.6100761,"ECCENTRICITY":0.00020948,"INCLINATION":97.5608,"RA_OF_ASC_NODE":176.1853,"ARG_OF_PERICENTER":115.2158,"MEAN_ANOMALY":244.9316,"EPHEMERIS_TYPE":0,"CLASSIFICATION_TYPE":"U","NORAD_CAT_ID":52448,"ELEMENT_SET_NO":999,"REV_AT_EPOCH":21401,"BSTAR":0.0010031145,"MEAN_MOTION_DOT":0.00084827,"MEAN_MOTION_DDOT":0},{"OBJECT_NAME":"CZ-6A DEB","OBJECT_ID":"2022-151QY","EPOCH":"2026-03-09T17:50:23.306784","MEAN_MOTION":15.52545524,"ECCENTRICITY":0.00125292,"INCLINATION":98.6226,"RA_OF_ASC_NODE":157.385,"ARG_OF_PERICENTER":230.1494,"MEAN_ANOMALY":129.8654,"EPHEMERIS_TYPE":0,"CLASSIFICATION_TYPE":"U","NORAD_CAT_ID":54911,"ELEMENT_SET_NO":999,"REV_AT_EPOCH":8417,"BSTAR":0.013233353,"MEAN_MOTION_DOT":0.00894063,"MEAN_MOTION_DDOT":0}]
